FENGYUN 2F              
1 38049U 12002A   22358.18866209 -.00000346  00000+0  00000+0 0  9991
2 38049   4.2561  78.2104 0002796 274.7603 279.3632  1.00256972 40131
METEOSAT-10 (MSG-3)     
1 38552U 12035B   22358.12268567  .00000074  00000+0  00000+0 0  9990
2 38552   1.8367  50.3290 0000950 175.7570 280.1789  1.00270957 38114
METOP-B                 
1 38771U 12049A   22358.54375031  .00000123  00000+0  76401-4 0  9997
2 38771  98.7056  55.6177 0001131 130.7921 337.6515 14.21488048532744
FENGYUN 3C              
1 39260U 13052A   22358.21548610  .00000129  00000+0  86075-4 0  9999
2 39260  98.4399  16.5834 0012206  87.9072 272.3506 14.15969727478774
METEOR-M 2              
1 40069U 14037A   22358.19414980  .00000047  00000+0  41112-4 0  9993
2 40069  98.4260   7.2869 0006561 124.6494 235.5312 14.20731338438806
HIMAWARI-8              
1 40267U 14060A   22358.50749648 -.00000264  00000+0  00000+0 0  9994
2 40267   0.0298 121.5448 0000926 166.0053 128.8302  1.00270899 30017
FENGYUN 2G              
1 40367U 14090A   22358.50570292 -.00000291  00000+0  00000+0 0  9995
2 40367   2.4118  87.5284 0000506 270.5192  16.1788  1.00284185 29257
METEOSAT-11 (MSG-4)     
1 40732U 15034A   22358.12085520  .00000010  00000+0  00000+0 0  9991
2 40732   0.4698 356.7071 0000474  91.0594  48.4152  1.00273901 27272
ELEKTRO-L 2             
1 41105U 15074A   22358.40481597 -.00000106  00000+0  00000+0 0  9992
2 41105   3.4641  85.8940 0002639 156.9707 341.3408  1.00271904 25778
HIMAWARI-9              
1 41836U 16064A   22358.51368991 -.00000263  00000+0  00000+0 0  9991
2 41836   0.0065 105.9211 0000782 203.6675 109.1166  1.00272321 22444
GOES 16                 
1 41866U 16071A   22358.46443692 -.00000236  00000+0  00000+0 0  9998
2 41866   0.0782 250.9952 0000585  69.7449 224.2328  1.00269864 22376
FENGYUN 4A              
1 41882U 16077A   22358.62201925 -.00000318  00000+0  00000+0 0  9992
2 41882   0.0299 346.0394 0005724  61.9528  13.6968  1.00268903 22245
CYGFM05                 
1 41884U 16078A   22358.58721025  .00004191  00000+0  20464-3 0  9990
2 41884  34.9562  96.6772 0014540 353.5790   6.4734 15.17615979333676
CYGFM04                 
1 41885U 16078B   22358.37380906  .00004316  00000+0  20747-3 0  9990
2 41885  34.9498  86.1541 0012801  10.0978 349.9990 15.18172851333693
CYGFM02                 
1 41886U 16078C   22358.55704871  .00004237  00000+0  20340-3 0  9993
2 41886  34.9587  87.2802 0013538   5.3940 354.6916 15.18214768333807
CYGFM01                 
1 41887U 16078D   22358.41644347  .00004208  00000+0  20662-3 0  9995
2 41887  34.9529 100.4452 0015003 350.9915   9.0526 15.17412648333593
CYGFM08                 
1 41888U 16078E   22358.53814649  .00003884  00000+0  18821-3 0  9996
2 41888  34.9504  91.4197 0014011   5.2137 354.8719 15.17911103333759
CYGFM07                 
1 41890U 16078G   22358.52841887  .00003854  00000+0  18558-3 0  9996
2 41890  34.9521  84.9761 0012255   9.7169 350.3779 15.18157902333721
CYGFM03                 
1 41891U 16078H   22358.52694984  .00003887  00000+0  18713-3 0  9990
2 41891  34.9556  85.5032 0011810   7.3739 352.7146 15.18161407333719
FENGYUN 3D              
1 43010U 17072A   22358.14463712  .00000105  00000+0  71675-4 0  9998
2 43010  98.8392 301.9845 0002409  86.6399 273.5049 14.19121133264676
NOAA 20                 
1 43013U 17073A   22358.53139745  .00000067  00000+0  52741-4 0  9991
2 43013  98.7366 294.2547 0000791 115.7958 244.3299 14.19538247264197
GOES 17                 
1 43226U 18022A   22358.08189289  .00000112  00000+0  00000+0 0  9997
2 43226   0.0121 103.5715 0000096 191.4617  49.7013  1.00271573 17670
FENGYUN 2H              
1 43491U 18050A   22358.49520622 -.00000118  00000+0  00000+0 0  9994
2 43491   1.6299  93.7818 0002458  68.9665 187.6624  1.00274366 16690
METOP-C                 
1 43689U 18087A   22358.48875826  .00000123  00000+0  76453-4 0  9996
2 43689  98.7101  55.6116 0002984 189.0334 171.0790 14.21493901214302
GEO-KOMPSAT-2A          
1 43823U 18100A   22358.50496870 -.00000332  00000+0  00000+0 0  9996
2 43823   0.0514 139.8842 0000500 314.8777 308.2903  1.00270353 14875
METEOR-M2 2             
1 44387U 19038A   22358.18396702  .00000053  00000+0  42554-4 0  9994
2 44387  98.7505 317.6870 0002364  83.7146 276.4300 14.23736397180408
FENGYUN 3E              
1 49008U 21062A   22358.23179808  .00000029  00000+0  34165-4 0  9993
2 49008  98.7170 357.2534 0002305 135.7417 224.3948 14.19750070 76247
GOES 18                 
1 51850U 22021A   22354.42444059  .00000124  00000+0  00000+0 0  9999
2 51850   0.0437 171.2722 0000946  82.9050 210.6858  1.00270542  3004
NOAA 21 (JPSS-2)        
1 54234U 22150A   22358.47880545  .00000087  00000+0  62045-4 0  9994
2 54234  98.7006 294.3224 0001083  86.6579 273.4721 14.19548197  6268
METEOSAT-12             
1 54743U 22170C   22353.31524981 -.00000002  00000+0  00000+0 0  9994
2 54743   5.5504 217.8990 7131836 181.4542 110.3708  2.25104636   115
EOS-6 (OCEANSAT-3)      
1 54361U 22158A   22358.61727784  .00001137  00000+0  32568-3 0  9997
2 54361  98.3549  92.9801 0001267  74.7630 285.3820 14.46825899  4098
2022-158B               
1 54362U 22158B   22357.62175338  .00004359  00000+0  22292-3 0  9992
2 54362  97.4624  92.5508 0024538 151.5724 208.6637 15.16908040  4134
THYBOLT-1               
1 54363U 22158C   22358.37831912  .00014681  00000+0  68717-3 0  9994
2 54363  97.4491  93.2073 0012072 157.8667 272.6558 15.19774795  4254
THYBOLT-2               
1 54364U 22158D   22358.51845648  .00014340  00000+0  67126-3 0  9997
2 54364  97.4475  93.3469 0011965 157.9972 319.3211 15.19778427  4270
INS-2B                  
1 54365U 22158E   22358.45091404  .00014011  00000+0  65186-3 0  9993
2 54365  97.4443  93.2661 0011929 168.0360 323.4516 15.19996480  4267
ANAND                   
1 54366U 22158F   22358.43534190  .00011822  00000+0  54905-3 0  9990
2 54366  97.4417  93.2482 0011050 167.4637 256.3027 15.20107882  4268
ASTROCAST-0304          
1 54367U 22158G   22358.42898328  .00007319  00000+0  33937-3 0  9994
2 54367  97.4465  93.2814 0009226 165.7379 258.0447 15.20321975  4252
ASTROCAST-0303          
1 54368U 22158H   22358.42718531  .00006625  00000+0  30688-3 0  9991
2 54368  97.4480  93.2917 0008978 174.2576 248.2149 15.20394793  4260
ASTROCAST-0302          
1 54369U 22158J   22358.42347326  .00009134  00000+0  41770-3 0  9994
2 54369  97.4478  93.2968 0008601 181.8877 240.5833 15.20734072  4268
ASTROCAST-0301          
1 54370U 22158K   22358.42111178  .00006126  00000+0  28073-3 0  9999
2 54370  97.4487  93.3022 0009170 185.2923 239.0472 15.20794373  4266
DRAGON CRS-26           
1 54371U 22159A   22357.56376573  .00009640  00000+0  17942-3 0  9994
2 54371  51.6419 118.4508 0005698 179.4554 285.1029 15.49550321374554
2022-160A               
1 54372U 22160A   22358.53383624  .00013644  00000+0  57626-3 0  9992
2 54372  34.9995  57.9705 0006025 126.7775   6.9870 15.22432166  4122
2022-160B               
1 54373U 22160B   22358.49679265  .00024640  00000+0  98258-3 0  9991
2 54373  34.9982  57.9744 0007615 140.4346 236.8038 15.24260764  4120
2022-160C               
1 54374U 22160C   22358.46982624  .00010396  00000+0  43792-3 0  9991
2 54374  35.0005  58.4210 0004870 114.5019  11.0108 15.22570008  4070
2022-160D               
1 54375U 22160D   22358.52394676  .00026909  00000+0  10600-2 0  9991
2 54375  34.9989  57.7183 0007853 147.5819  50.9328 15.24653562  4120
2022-160E               
1 54376U 22160E   22358.53779601  .00014914  00000+0  62734-3 0  9997
2 54376  35.0007  58.0053 0007295 140.2178 354.8948 15.22547971  4120
COSMOS 2564 [GLONASS-M] 
1 54377U 22161A   22358.24912988  .00000074  00000+0  00000+0 0  9990
2 54377  64.7753 235.0697 0007109 216.9932 321.1405  2.13102183   547
FREGAT R/B              
1 54378U 22161B   22332.88538517  .00000006  00000+0  00000+0 0  9990
2 54378  64.7543 235.8312 0069964  61.3586  78.3433  2.10629160    00
SHENZHOU-15             
1 54379U 22162A   22357.17715278  .00018343  00000+0  22590-3 0  9997
2 54379  41.4752 148.4058 0004079 197.4974 151.7162 15.59779644 94300
COSMOS 2565             
1 54381U 22163A   22358.22408375 -.00000030  00000+0  32814-4 0  9991
2 54381  67.1549 316.3292 0006848 264.9247  95.1033 13.96673669  3281
SL-4 R/B                
1 54382U 22163B   22358.39925110  .00127504  75884-5  63073-3 0  9994
2 54382  67.1341 305.5480 0444631  70.5236 294.3371 15.07813498  3543
2022-163C               
1 54383U 22163C   22358.50317941 -.00000017  00000+0  41875-4 0  9994
2 54383  67.1420 315.5881 0011605 316.5578  43.4591 13.97183960  3011
1998-067UL              
1 54534U 98067UL  22357.39690656  .00048108  00000+0  78049-3 0  9995
2 54534  51.6411 119.0573 0005320 205.8238 154.2487 15.52247864  3328
1998-067UM              
1 54535U 98067UM  22358.62108749  .00056347  00000+0  89942-3 0  9998
2 54535  51.6419 112.9491 0004349 208.7908 165.9176 15.52637141  3510
1998-067UN              
1 54536U 98067UN  22358.64031358  .00043623  00000+0  70999-3 0  9997
2 54536  51.6429 112.8811 0005498 207.1362 260.9014 15.52201895  3475
1998-067UP              
1 54537U 98067UP  22358.57201424  .00048966  00000+0  78953-3 0  9996
2 54537  51.6413 113.2036 0005276 207.0558 247.7946 15.52412417  3508
2022-164A               
1 54588U 22164A   22358.13518715  .00000843  00000+0  25628-3 0  9996
2 54588  98.3560  25.2289 0008924 223.5554 136.4921 14.44547047  2479
KZ-11 R/B               
1 54589U 22164B   22358.54955758  .00018510  22399-5  20828-3 0  9992
2 54589  98.3686  27.5053 0379354  46.6834 316.5362 15.08044455  2641
2022-165A               
1 54640U 22165A   22358.44722260  .00000576  00000+0  13577-3 0  9995
2 54640  98.1179 296.5971 0001003  94.3088 265.8214 14.57767607  2292
